ONEWEB-0597             
1 54663U 22166X   25166.38602300 -.00000262  00000+0 -66586-3 0  9998
2 54663  87.9261 317.1467 0001629  96.4940 263.6379 13.21825285123557
ONEWEB-0600             
1 54664U 22166Y   25165.83881219  .00000109  00000+0  23312-3 0  9994
2 54664  87.9245 317.2593 0001658  99.7183 260.4138 13.21826838122987
ONEWEB-0601             
1 54665U 22166Z   25166.36079477  .00000093  00000+0  19248-3 0  9994
2 54665  87.9263 317.1625 0001519  90.0087 270.1221 13.21826974123709
ONEWEB-0602             
1 54666U 22166AA  25166.40181072 -.00000013  00000+0 -63291-4 0  9997
2 54666  87.9263 317.1552 0001586  98.9896 261.1417 13.21826642123561
ONEWEB-0603             
1 54667U 22166AB  25166.17944967  .00000016  00000+0  68431-5 0  9995
2 54667  87.9234 317.1457 0001525  94.0696 266.0612 13.21826497123459
ONEWEB-0604             
1 54668U 22166AC  25166.39391232 -.00000014  00000+0 -66002-4 0  9992
2 54668  87.9257 317.1179 0001649 100.1533 259.9787 13.21826651123458
ONEWEB-0605             
1 54669U 22166AD  25166.16052394  .00000013  00000+0  17582-6 0  9999
2 54669  87.9256 317.1951 0001514  74.8502 285.2799 13.21825921123498
ONEWEB-0606             
1 54670U 22166AE  25166.18259534  .00000075  00000+0  15099-3 0  9994
2 54670  87.9260 317.2014 0002028  96.9206 263.2159 13.21827414123544
